DECODE 2-LINE ELSETS WITH THE FOLLOWING KEY:
1 AAAAAU 00  0  0 BBBBB.BBBBBBBB  .CCCCCCCC  00000-0  00000-0 0  DDDZ
2 AAAAA EEE.EEEE FFF.FFFF GGGGGGG HHH.HHHH III.IIII JJ.JJJJJJJJKKKKKZ
KEY: A-CATALOGNUM B-EPOCHTIME C-DECAY D-ELSETNUM E-INCLINATION F-RAAN
G-ECCENTRICITY H-ARGPERIGEE I-MNANOM J-MNMOTION K-ORBITNUM Z-CHECKSUM

TO ALL RADIO AMATEURS BT

AO-07
1 07530U 74089B   14016.90432712 -.00000025  00000-0  11305-3 0  8735
2 07530 101.4560 003.8208 0011664 229.5363 185.1152 12.53601412792560
FO-29
1 24278U 96046B   14016.71292435 -.00000041  00000-0 -33404-5 0  2857
2 24278 098.5261 051.3998 0349790 330.7607 139.6954 13.53013666860183
SO-33
1 25509U 98061B   14015.20064197  .00000252  00000-0  35466-4 0  6708
2 25509 031.4349 307.0546 0350787 214.3148 297.1826 14.29285652795241
RS-22
1 27939U 03042A   14016.88266024  .00001015  00000-0  19838-3 0  1347
2 27939 097.7981 198.6564 0012330 227.6829 132.3353 14.64814183550579
VO-52
1 28650U 05017B   14016.16787003  .00002618  00000-0  31427-3 0  6341
2 28650 097.5613 028.8208 0024040 300.7962 150.2957 14.84627363470676
HO-68
1 36122U 09072B   14016.70508858 -.00000044  00000-0  00000 0 0  2402
2 36122 100.2751 073.0622 0007264 224.5751 135.4782 13.16310881196500
AO-73
1 39444U 13066AE  14016.15774962  .00002099  00000-0  29245-3 0   382
2 39444 097.7927 091.9571 0063980 017.2694 343.0667 14.77388289  7018
UO-11
1 14781U 84021B   14016.12731728  .00000786  00000-0  10760-3 0  3902
2 14781 097.8740 079.0848 0007618 321.8798 038.1875 14.81241086605451
AO-16
1 20439U 90005D   14016.09342891  .00000178  00000-0  82005-4 0  9322
2 20439 098.4949 316.4092 0009914 245.7182 180.8989 14.32266720252713
LO-19
1 20442U 90005G   14015.87845957  .00000160  00000-0  74960-4 0  8693
2 20442 098.4651 317.3178 0010981 235.4216 124.5933 14.32472871252879
AO-27
1 22825U 93061C   14015.89837882  .00000148  00000-0  75013-4 0  5744
2 22825 098.6458 322.9431 0008766 032.0494 004.1491 14.29641953 59023
IO-26
1 22826U 93061D   14015.91826947  .00000178  00000-0  86194-4 0  3314
2 22826 098.6399 323.2083 0009160 024.7090 335.4530 14.29934310 59154
GO-32
1 25397U 98043D   14015.97264256  .00000074  00000-0  51114-4 0  2543
2 25397 098.4483 339.8172 0002081 068.3230 333.6989 14.23394226806214
NO-44
1 26931U 01043C   14016.21136880  .00000097  00000-0  69652-4 0  5130
2 26931 067.0519 070.3269 0005859 266.2577 093.7854 14.30023318641877
SO-50
1 27607U 02058C   14016.22063785  .00000901  00000-0  15858-3 0  2759
2 27607 064.5586 335.4374 0033037 070.1239 031.5030 14.73340743595091
CO-55
1 27844U 03031E   14016.01580970  .00000295  00000-0  15498-3 0  8337
2 27844 098.7004 026.9858 0009411 001.2930 052.1049 14.21363690546969
CO-57
1 27848U 03031J   14015.98808296  .00000234  00000-0  12788-3 0  7746
2 27848 098.7095 026.5857 0009478 007.9164 045.4514 14.21070153546885
