Satellite: AO-07
Catalog number: 07530
Epoch time:      14016.90432712
Element set:     873
Inclination:      101.4560 deg
RA of node:       003.8208 deg
Eccentricity:    0.0011664
Arg of perigee:   229.5363 deg
Mean anomaly:     185.1152 deg
Mean motion:   12.53601412 rev/day
Decay rate:       -2.5e-07 rev/day^2
Epoch rev:           79256
Checksum:              262

Satellite: FO-29
Catalog number: 24278
Epoch time:      14016.71292435
Element set:     285
Inclination:      098.5261 deg
RA of node:       051.3998 deg
Eccentricity:    0.0349790
Arg of perigee:   330.7607 deg
Mean anomaly:     139.6954 deg
Mean motion:   13.53013666 rev/day
Decay rate:       -4.1e-07 rev/day^2
Epoch rev:           86018
Checksum:              329

Satellite: SO-33
Catalog number: 25509
Epoch time:      14015.20064197
Element set:     670
Inclination:      031.4349 deg
RA of node:       307.0546 deg
Eccentricity:    0.0350787
Arg of perigee:   214.3148 deg
Mean anomaly:     297.1826 deg
Mean motion:   14.29285652 rev/day
Decay rate:       2.52e-06 rev/day^2
Epoch rev:           79524
Checksum:              307

Satellite: RS-22
Catalog number: 27939
Epoch time:      14016.88266024
Element set:     134
Inclination:      097.7981 deg
RA of node:       198.6564 deg
Eccentricity:    0.0012330
Arg of perigee:   227.6829 deg
Mean anomaly:     132.3353 deg
Mean motion:   14.64814183 rev/day
Decay rate:      1.015e-05 rev/day^2
Epoch rev:           55057
Checksum:              313

Satellite: VO-52
Catalog number: 28650
Epoch time:      14016.16787003
Element set:     634
Inclination:      097.5613 deg
RA of node:       028.8208 deg
Eccentricity:    0.0024040
Arg of perigee:   300.7962 deg
Mean anomaly:     150.2957 deg
Mean motion:   14.84627363 rev/day
Decay rate:      2.618e-05 rev/day^2
Epoch rev:           47067
Checksum:              304

Satellite: HO-68
Catalog number: 36122
Epoch time:      14016.70508858
Element set:     240
Inclination:      100.2751 deg
RA of node:       073.0622 deg
Eccentricity:    0.0007264
Arg of perigee:   224.5751 deg
Mean anomaly:     135.4782 deg
Mean motion:   13.16310881 rev/day
Decay rate:       -4.4e-07 rev/day^2
Epoch rev:           19650
Checksum:              271

Satellite: AO-73
Catalog number: 39444
Epoch time:      14016.15774962
Element set:      38
Inclination:      097.7927 deg
RA of node:       091.9571 deg
Eccentricity:    0.0063980
Arg of perigee:   017.2694 deg
Mean anomaly:     343.0667 deg
Mean motion:   14.77388289 rev/day
Decay rate:      2.099e-05 rev/day^2
Epoch rev:             701
Checksum:              349

/EX
SB KEPS @ AMSAT  $ORB14016.D
Orbital Elements  14016.MICROS

HR AMSAT ORBITAL ELEMENTS FOR THE MICROSATS
FROM WA5QGD FORT WORTH,TX January 16, 2014
BID: ORB14016.D
TO ALL RADIO AMATEURS BT

Satellite: UO-11
Catalog number: 14781
Epoch time:      14016.12731728
Element set:     390
Inclination:      097.8740 deg
RA of node:       079.0848 deg
Eccentricity:    0.0007618
Arg of perigee:   321.8798 deg
Mean anomaly:     038.1875 deg
Mean motion:   14.81241086 rev/day
Decay rate:       7.86e-06 rev/day^2
Epoch rev:           60545
Checksum:              327

Satellite: AO-16
Catalog number: 20439
Epoch time:      14016.09342891
Element set:     932
Inclination:      098.4949 deg
RA of node:       316.4092 deg
Eccentricity:    0.0009914
Arg of perigee:   245.7182 deg
Mean anomaly:     180.8989 deg
Mean motion:   14.32266720 rev/day
Decay rate:       1.78e-06 rev/day^2
Epoch rev:           25271
Checksum:              326

Satellite: LO-19
Catalog number: 20442
Epoch time:      14015.87845957
Element set:     869
Inclination:      098.4651 deg
RA of node:       317.3178 deg
Eccentricity:    0.0010981
Arg of perigee:   235.4216 deg
Mean anomaly:     124.5933 deg
Mean motion:   14.32472871 rev/day
Decay rate:       1.60e-06 rev/day^2
Epoch rev:           25287
Checksum:              321

Satellite: AO-27
Catalog number: 22825
Epoch time:      14015.89837882
Element set:     574
Inclination:      098.6458 deg
RA of node:       322.9431 deg
Eccentricity:    0.0008766
Arg of perigee:   032.0494 deg
Mean anomaly:     004.1491 deg
Mean motion:   14.29641953 rev/day
Decay rate:       1.48e-06 rev/day^2
Epoch rev:            5902
Checksum:              323

Satellite: IO-26
Catalog number: 22826
Epoch time:      14015.91826947
Element set:     331
Inclination:      098.6399 deg
RA of node:       323.2083 deg
Eccentricity:    0.0009160
Arg of perigee:   024.7090 deg
Mean anomaly:     335.4530 deg
Mean motion:   14.29934310 rev/day
Decay rate:       1.78e-06 rev/day^2
Epoch rev:            5915
Checksum:              300

Satellite: GO-32
Catalog number: 25397
Epoch time:      14015.97264256
Element set:     254
Inclination:      098.4483 deg
RA of node:       339.8172 deg
Eccentricity:    0.0002081
Arg of perigee:   068.3230 deg
Mean anomaly:     333.6989 deg
Mean motion:   14.23394226 rev/day
Decay rate:        7.4e-07 rev/day^2
Epoch rev:           80621
Checksum:              312

Satellite: NO-44
Catalog number: 26931
Epoch time:      14016.21136880
Element set:     513
Inclination:      067.0519 deg
RA of node:       070.3269 deg
Eccentricity:    0.0005859
Arg of perigee:   266.2577 deg
Mean anomaly:     093.7854 deg
Mean motion:   14.30023318 rev/day
Decay rate:        9.7e-07 rev/day^2
Epoch rev:           64187
Checksum:              310

Satellite: SO-50
Catalog number: 27607
Epoch time:      14016.22063785
Element set:     275
Inclination:      064.5586 deg
RA of node:       335.4374 deg
Eccentricity:    0.0033037
Arg of perigee:   070.1239 deg
Mean anomaly:     031.5030 deg
Mean motion:   14.73340743 rev/day
Decay rate:       9.01e-06 rev/day^2
Epoch rev:           59509
Checksum:              283

Satellite: CO-55
Catalog number: 27844
Epoch time:      14016.01580970
Element set:     833
Inclination:      098.7004 deg
RA of node:       026.9858 deg
Eccentricity:    0.0009411
Arg of perigee:   001.2930 deg
Mean anomaly:     052.1049 deg
Mean motion:   14.21363690 rev/day
Decay rate:       2.95e-06 rev/day^2
Epoch rev:           54696
Checksum:              299

Satellite: CO-57
Catalog number: 27848
Epoch time:      14015.98808296
Element set:     774
Inclination:      098.7095 deg
RA of node:       026.5857 deg
Eccentricity:    0.0009478
Arg of perigee:   007.9164 deg
Mean anomaly:     045.4514 deg
Mean motion:   14.21070153 rev/day
Decay rate:       2.34e-06 rev/day^2
Epoch rev:           54688
Checksum:              343

